{
  "norad_id": 68589,
  "name": "KUIPER-00285",
  "history": [
    {
      "epoch": "2026-04-09T12:05:13.384032Z",
      "apogee_km": 458.85860319060066,
      "perigee_km": 449.9394106871423,
      "latitude_deg": 2.3492951458729144e-05,
      "longitude_deg": 130.0349705170747,
      "height_km": 457.5905881774887,
      "semi_major_axis_km": 6832.536006938871,
      "eccentricity": 0.0006527,
      "inclination_deg": 51.8728,
      "raan_deg": 149.0916,
      "arg_perigee_deg": 123.1301,
      "mean_anomaly_deg": 237.0313,
      "mean_motion_rev_day": 15.37198204
    }
  ]
}